{
  "type": "FeatureCollection",
  "generator": "overpass-turbo",
  "copyright": "The data included in this document is from www.openstreetmap.org. The data is made available under ODbL.",
  "timestamp": "2025-10-27T12:26:06Z",
  "features": [
    {
      "type": "Feature",
      "properties": {
        "@id": "relation/2606786",
        "admin_level": "9",
        "boundary": "administrative",
        "is_in:city": "Gdynia",
        "is_in:province": "województwo pomorskie",
        "name": "Chwarzno-Wiczlino",
        "type": "boundary"
      },
      "geometry": {
        "type": "Polygon",
        "coordinates": [
          [
            [
              18.4683617,
              54.4870959
            ],
            [
              18.4677348,
              54.4876531
            ],
            [
              18.4675118,
              54.4877826
            ],
            [
              18.467103,
              54.4881029
            ],
            [
              18.4669511,
              54.4881355
            ],
            [
              18.4667477,
              54.4882647
            ],
            [
              18.4667349,
              54.4883654
            ],
            [
              18.4667508,
              54.4888575
            ],
            [
              18.4666592,
              54.4888591
            ],
            [
              18.4665309,
              54.4884716
            ],
            [
              18.4663636,
              54.4885695
            ],
            [
              18.4655858,
              54.4891328
            ],
            [
              18.4654989,
              54.4892167
            ],
            [
              18.4653159,
              54.4894292
            ],
            [
              18.4651158,
              54.489687
            ],
            [
              18.4649888,
              54.4897785
            ],
            [
              18.4649008,
              54.4898432
            ],
            [
              18.4649158,
              54.4898976
            ],
            [
              18.4648176,
              54.4900088
            ],
            [
              18.4647238,
              54.4906021
            ],
            [
              18.4649389,
              54.4905611
            ],
            [
              18.4649818,
              54.4907041
            ],
            [
              18.4653553,
              54.490694
            ],
            [
              18.4654854,
              54.4909217
            ],
            [
              18.4658383,
              54.4908589
            ],
            [
              18.4661749,
              54.4909345
            ],
            [
              18.4664656,
              54.4911018
            ],
            [
              18.4666813,
              54.4910194
            ],
            [
              18.4667495,
              54.4910249
            ],
            [
              18.4668809,
              54.4911439
            ],
            [
              18.4670674,
              54.4910722
            ],
            [
              18.4671194,
              54.4910705
            ],
            [
              18.4671236,
              54.4911151
            ],
            [
              18.4670625,
              54.4911321
            ],
            [
              18.4671343,
              54.4911961
            ],
            [
              18.4673639,
              54.4911853
            ],
            [
              18.4674409,
              54.4911113
            ],
            [
              18.4676418,
              54.4910887
            ],
            [
              18.4678431,
              54.4910841
            ],
            [
              18.468076,
              54.4909686
            ],
            [
              18.4682059,
              54.4909523
            ],
            [
              18.4683589,
              54.4910493
            ],
            [
              18.4685719,
              54.4911315
            ],
            [
              18.4687313,
              54.4911671
            ],
            [
              18.4689948,
              54.4913189
            ],
            [
              18.4691487,
              54.4913479
            ],
            [
              18.4692051,
              54.4913152
            ],
            [
              18.4692576,
              54.4913552
            ],
            [
              18.4694017,
              54.4913685
            ],
            [
              18.469507,
              54.491478
            ],
            [
              18.4696058,
              54.4914882
            ],
            [
              18.4697192,
              54.4914099
            ],
            [
              18.469828,
              54.4914263
            ],
            [
              18.4698861,
              54.4915105
            ],
            [
              18.4703204,
              54.4916009
            ],
            [
              18.4705103,
              54.491525
            ],
            [
              18.4706264,
              54.4915366
            ],
            [
              18.4707713,
              54.4914819
            ],
            [
              18.4709937,
              54.4915268
            ],
            [
              18.4711149,
              54.4915351
            ],
            [
              18.4716652,
              54.4916918
            ],
            [
              18.4717616,
              54.4916684
            ],
            [
              18.4718397,
              54.4916762
            ],
            [
              18.471937,
              54.4917235
            ],
            [
              18.472194,
              54.4917325
            ],
            [
              18.4722236,
              54.4917765
            ],
            [
              18.472576,
              54.4918851
            ],
            [
              18.4725725,
              54.4919385
            ],
            [
              18.4726397,
              54.4919706
            ],
            [
              18.4729657,
              54.4919603
            ],
            [
              18.4731021,
              54.492006
            ],
            [
              18.4732246,
              54.4920005
            ],
            [
              18.4734209,
              54.4920326
            ],
            [
              18.4736579,
              54.4918772
            ],
            [
              18.4742641,
              54.492512
            ],
            [
              18.4744394,
              54.492709
            ],
            [
              18.4745291,
              54.4930401
            ],
            [
              18.4750318,
              54.4933479
            ],
            [
              18.4771474,
              54.4948297
            ],
            [
              18.4779579,
              54.4955323
            ],
            [
              18.4780479,
              54.4959991
            ],
            [
              18.47796,
              54.496889
            ],
            [
              18.4777997,
              54.4972282
            ],
            [
              18.4775548,
              54.4977713
            ],
            [
              18.4769765,
              54.4982988
            ],
            [
              18.4766605,
              54.4988347
            ],
            [
              18.4763561,
              54.4997572
            ],
            [
              18.4765882,
              54.4997397
            ],
            [
              18.4766478,
              54.4997889
            ],
            [
              18.4729688,
              54.5000772
            ],
            [
              18.4729662,
              54.5002773
            ],
            [
              18.4729667,
              54.5002935
            ],
            [
              18.4729734,
              54.5005151
            ],
            [
              18.4729747,
              54.5006895
            ],
            [
              18.4729719,
              54.5012294
            ],
            [
              18.4729731,
              54.5015013
            ],
            [
              18.4729738,
              54.5016739
            ],
            [
              18.4729743,
              54.5018643
            ],
            [
              18.472975,
              54.5018938
            ],
            [
              18.4729773,
              54.5019389
            ],
            [
              18.4729899,
              54.5021205
            ],
            [
              18.4729515,
              54.5028132
            ],
            [
              18.4729538,
              54.502861
            ],
            [
              18.4759218,
              54.5030513
            ],
            [
              18.4757695,
              54.5034573
            ],
            [
              18.4757331,
              54.5035701
            ],
            [
              18.4755667,
              54.5040712
            ],
            [
              18.4756726,
              54.5047959
            ],
            [
              18.4756744,
              54.5049966
            ],
            [
              18.4765954,
              54.5061173
            ],
            [
              18.4763667,
              54.5064511
            ],
            [
              18.4756651,
              54.5072494
            ],
            [
              18.4763261,
              54.5087426
            ],
            [
              18.4765803,
              54.5090355
            ],
            [
              18.4685485,
              54.5085828
            ],
            [
              18.4620431,
              54.5082189
            ],
            [
              18.4605978,
              54.5080813
            ],
            [
              18.4602615,
              54.5080785
            ],
            [
              18.4601592,
              54.5080795
            ],
            [
              18.4595976,
              54.5080795
            ],
            [
              18.4593669,
              54.5080796
            ],
            [
              18.4586553,
              54.5080775
            ],
            [
              18.4584841,
              54.5080516
            ],
            [
              18.4584401,
              54.5079559
            ],
            [
              18.4521645,
              54.5104829
            ],
            [
              18.446988,
              54.5125596
            ],
            [
              18.446918,
              54.5125973
            ],
            [
              18.4452045,
              54.5132761
            ],
            [
              18.4388824,
              54.5157951
            ],
            [
              18.4378744,
              54.5149306
            ],
            [
              18.4364714,
              54.5142221
            ],
            [
              18.4358222,
              54.5138896
            ],
            [
              18.4355596,
              54.5136966
            ],
            [
              18.435373,
              54.513561
            ],
            [
              18.4352671,
              54.5134552
            ],
            [
              18.4337725,
              54.5132859
            ],
            [
              18.4327738,
              54.5131115
            ],
            [
              18.4321566,
              54.5130566
            ],
            [
              18.4281578,
              54.5129504
            ],
            [
              18.4277085,
              54.5129014
            ],
            [
              18.4265312,
              54.5127014
            ],
            [
              18.4262787,
              54.512582
            ],
            [
              18.4260792,
              54.5123192
            ],
            [
              18.4254399,
              54.5122258
            ],
            [
              18.4249791,
              54.5120583
            ],
            [
              18.4245299,
              54.5120008
            ],
            [
              18.4239583,
              54.5121084
            ],
            [
              18.4232691,
              54.5123167
            ],
            [
              18.4225807,
              54.5123692
            ],
            [
              18.4221083,
              54.5126444
            ],
            [
              18.4218625,
              54.5129467
            ],
            [
              18.4216326,
              54.5131593
            ],
            [
              18.4209586,
              54.513368
            ],
            [
              18.4207464,
              54.5137202
            ],
            [
              18.4203083,
              54.5141149
            ],
            [
              18.419571,
              54.5146924
            ],
            [
              18.4192241,
              54.5150609
            ],
            [
              18.4190302,
              54.5153612
            ],
            [
              18.4189934,
              54.515531
            ],
            [
              18.4181574,
              54.51552
            ],
            [
              18.4176632,
              54.5155687
            ],
            [
              18.4169092,
              54.5156708
            ],
            [
              18.4163251,
              54.5155806
            ],
            [
              18.4161159,
              54.5155889
            ],
            [
              18.4157451,
              54.5156024
            ],
            [
              18.4153984,
              54.5155987
            ],
            [
              18.41508,
              54.5156261
            ],
            [
              18.4150825,
              54.5153732
            ],
            [
              18.4145608,
              54.5152
            ],
            [
              18.412687,
              54.5151903
            ],
            [
              18.412073,
              54.5158013
            ],
            [
              18.4127646,
              54.5166544
            ],
            [
              18.4133995,
              54.5175931
            ],
            [
              18.4133801,
              54.5179172
            ],
            [
              18.4135063,
              54.518174
            ],
            [
              18.4133582,
              54.5186375
            ],
            [
              18.4133942,
              54.5187915
            ],
            [
              18.4133733,
              54.5189884
            ],
            [
              18.4133661,
              54.5190559
            ],
            [
              18.4135219,
              54.5192813
            ],
            [
              18.4129158,
              54.5193582
            ],
            [
              18.4129083,
              54.5194477
            ],
            [
              18.4144541,
              54.519833
            ],
            [
              18.4157779,
              54.5202666
            ],
            [
              18.4162977,
              54.5204365
            ],
            [
              18.4173796,
              54.5208524
            ],
            [
              18.4177658,
              54.5210663
            ],
            [
              18.4179329,
              54.5212232
            ],
            [
              18.4182444,
              54.5216121
            ],
            [
              18.4184123,
              54.5217829
            ],
            [
              18.4187645,
              54.5219906
            ],
            [
              18.4191317,
              54.522163
            ],
            [
              18.4194097,
              54.5222934
            ],
            [
              18.4194813,
              54.5223412
            ],
            [
              18.4200114,
              54.5226735
            ],
            [
              18.4184613,
              54.5233832
            ],
            [
              18.418314,
              54.523321
            ],
            [
              18.4180045,
              54.52276
            ],
            [
              18.4174237,
              54.522142
            ],
            [
              18.417207,
              54.5216367
            ],
            [
              18.4164107,
              54.5215605
            ],
            [
              18.4150887,
              54.5206169
            ],
            [
              18.4135085,
              54.5217376
            ],
            [
              18.4169911,
              54.5242765
            ],
            [
              18.4050324,
              54.5294317
            ],
            [
              18.4044089,
              54.5290696
            ],
            [
              18.4036774,
              54.5290151
            ],
            [
              18.4034889,
              54.5291468
            ],
            [
              18.4025717,
              54.5291891
            ],
            [
              18.4018203,
              54.5282972
            ],
            [
              18.4013829,
              54.5279682
            ],
            [
              18.4007978,
              54.527664
            ],
            [
              18.39881,
              54.5273755
            ],
            [
              18.3983831,
              54.5272783
            ],
            [
              18.3938514,
              54.5258008
            ],
            [
              18.3907169,
              54.5241522
            ],
            [
              18.3901146,
              54.5239218
            ],
            [
              18.3895894,
              54.5237657
            ],
            [
              18.3883296,
              54.523515
            ],
            [
              18.3868469,
              54.5231457
            ],
            [
              18.3845623,
              54.5221812
            ],
            [
              18.3839483,
              54.5216496
            ],
            [
              18.3830825,
              54.5207568
            ],
            [
              18.3830143,
              54.5192372
            ],
            [
              18.3819217,
              54.5176272
            ],
            [
              18.3809839,
              54.5167699
            ],
            [
              18.3800941,
              54.515966
            ],
            [
              18.3792813,
              54.5141717
            ],
            [
              18.3788817,
              54.5139007
            ],
            [
              18.3802339,
              54.5136197
            ],
            [
              18.379689,
              54.5128364
            ],
            [
              18.380333,
              54.5126617
            ],
            [
              18.3807626,
              54.5126714
            ],
            [
              18.3815036,
              54.5127548
            ],
            [
              18.3832711,
              54.5125649
            ],
            [
              18.3839747,
              54.5121044
            ],
            [
              18.3839375,
              54.5120695
            ],
            [
              18.3837532,
              54.5118968
            ],
            [
              18.384489,
              54.5114667
            ],
            [
              18.3849022,
              54.5103948
            ],
            [
              18.3838604,
              54.5097511
            ],
            [
              18.3829254,
              54.5091477
            ],
            [
              18.3824489,
              54.5090108
            ],
            [
              18.381107,
              54.5081951
            ],
            [
              18.3802051,
              54.5069
            ],
            [
              18.3786845,
              54.5067278
            ],
            [
              18.3748505,
              54.5062629
            ],
            [
              18.3714012,
              54.5057601
            ],
            [
              18.3705462,
              54.5056894
            ],
            [
              18.3702961,
              54.5056483
            ],
            [
              18.3700767,
              54.5055259
            ],
            [
              18.3696739,
              54.5050502
            ],
            [
              18.3694986,
              54.5048049
            ],
            [
              18.3682049,
              54.5040537
            ],
            [
              18.3672971,
              54.5036114
            ],
            [
              18.3669491,
              54.5033785
            ],
            [
              18.3667179,
              54.5031746
            ],
            [
              18.3665243,
              54.5029812
            ],
            [
              18.3657724,
              54.50223
            ],
            [
              18.3655314,
              54.5020242
            ],
            [
              18.3644478,
              54.501168
            ],
            [
              18.364233,
              54.5009585
            ],
            [
              18.3641026,
              54.5007646
            ],
            [
              18.3637052,
              54.4997339
            ],
            [
              18.3632383,
              54.4988903
            ],
            [
              18.3629066,
              54.4987674
            ],
            [
              18.362595,
              54.4987136
            ],
            [
              18.3622503,
              54.4987999
            ],
            [
              18.3619452,
              54.49875
            ],
            [
              18.3613513,
              54.4985159
            ],
            [
              18.3611242,
              54.4980694
            ],
            [
              18.3610843,
              54.4979008
            ],
            [
              18.3614282,
              54.4975483
            ],
            [
              18.3614007,
              54.4972262
            ],
            [
              18.3606262,
              54.4968053
            ],
            [
              18.3604979,
              54.4966872
            ],
            [
              18.3602608,
              54.4962389
            ],
            [
              18.3598724,
              54.4958921
            ],
            [
              18.3597072,
              54.4956374
            ],
            [
              18.3594206,
              54.4946087
            ],
            [
              18.3589023,
              54.4939354
            ],
            [
              18.3581978,
              54.4935149
            ],
            [
              18.358159,
              54.4934916
            ],
            [
              18.3581323,
              54.4934547
            ],
            [
              18.3579808,
              54.4932421
            ],
            [
              18.3580094,
              54.4932045
            ],
            [
              18.358034,
              54.4931854
            ],
            [
              18.3583499,
              54.4929394
            ],
            [
              18.3587638,
              54.4926133
            ],
            [
              18.3588429,
              54.4925536
            ],
            [
              18.3599955,
              54.4916832
            ],
            [
              18.3601335,
              54.4915783
            ],
            [
              18.360709,
              54.4911403
            ],
            [
              18.360939,
              54.4909656
            ],
            [
              18.3612711,
              54.4908645
            ],
            [
              18.3616131,
              54.4907604
            ],
            [
              18.3622322,
              54.4905722
            ],
            [
              18.3624056,
              54.4905193
            ],
            [
              18.3628749,
              54.4903767
            ],
            [
              18.3630751,
              54.4903412
            ],
            [
              18.3640199,
              54.4901728
            ],
            [
              18.3666425,
              54.4897043
            ],
            [
              18.3666864,
              54.4897109
            ],
            [
              18.3667342,
              54.4897181
            ],
            [
              18.3682681,
              54.4899505
            ],
            [
              18.3696697,
              54.4901638
            ],
            [
              18.3710749,
              54.4903744
            ],
            [
              18.3723455,
              54.4905725
            ],
            [
              18.3724751,
              54.4905927
            ],
            [
              18.3734815,
              54.4907484
            ],
            [
              18.375,
              54.4909833
            ],
            [
              18.3764184,
              54.4911975
            ],
            [
              18.3766225,
              54.4918827
            ],
            [
              18.3768656,
              54.4926689
            ],
            [
              18.3769087,
              54.4928124
            ],
            [
              18.3771006,
              54.4934527
            ],
            [
              18.377345,
              54.494234
            ],
            [
              18.3791402,
              54.494154
            ],
            [
              18.3792326,
              54.4941499
            ],
            [
              18.380156,
              54.4941088
            ],
            [
              18.3814944,
              54.4940367
            ],
            [
              18.3818888,
              54.4940174
            ],
            [
              18.38283,
              54.4939713
            ],
            [
              18.3841731,
              54.493901
            ],
            [
              18.385515,
              54.4938308
            ],
            [
              18.3867746,
              54.4937485
            ],
            [
              18.3869394,
              54.4936431
            ],
            [
              18.3875574,
              54.4932476
            ],
            [
              18.3881534,
              54.492858
            ],
            [
              18.388413,
              54.492687
            ],
            [
              18.3891671,
              54.4922011
            ],
            [
              18.3901437,
              54.493003
            ],
            [
              18.3901777,
              54.4930311
            ],
            [
              18.3902435,
              54.4930852
            ],
            [
              18.3909129,
              54.4936349
            ],
            [
              18.3918534,
              54.494418
            ],
            [
              18.3919838,
              54.4934972
            ],
            [
              18.392536,
              54.4919847
            ],
            [
              18.3926335,
              54.491683
            ],
            [
              18.3926579,
              54.4916072
            ],
            [
              18.3928074,
              54.491268
            ],
            [
              18.393031,
              54.4907595
            ],
            [
              18.3930665,
              54.4906721
            ],
            [
              18.3934944,
              54.4897022
            ],
            [
              18.3936088,
              54.4894406
            ],
            [
              18.3938104,
              54.4889868
            ],
            [
              18.3940893,
              54.4886346
            ],
            [
              18.3943999,
              54.4883452
            ],
            [
              18.394654,
              54.4881086
            ],
            [
              18.3949245,
              54.4878566
            ],
            [
              18.3949825,
              54.4878008
            ],
            [
              18.3954872,
              54.4873202
            ],
            [
              18.3961307,
              54.4866569
            ],
            [
              18.3968087,
              54.4859203
            ],
            [
              18.3970231,
              54.4856759
            ],
            [
              18.397341,
              54.4853137
            ],
            [
              18.3982652,
              54.4846504
            ],
            [
              18.3985828,
              54.4844094
            ],
            [
              18.3993977,
              54.483777
            ],
            [
              18.3997324,
              54.4835319
            ],
            [
              18.4002777,
              54.4830905
            ],
            [
              18.4003894,
              54.4830021
            ],
            [
              18.4004268,
              54.4829786
            ],
            [
              18.4004557,
              54.4829578
            ],
            [
              18.4009997,
              54.4825686
            ],
            [
              18.4012793,
              54.4823691
            ],
            [
              18.4016218,
              54.4821134
            ],
            [
              18.4020098,
              54.4818245
            ],
            [
              18.4020782,
              54.4817763
            ],
            [
              18.4025002,
              54.4814778
            ],
            [
              18.4025851,
              54.4814178
            ],
            [
              18.4027803,
              54.4812791
            ],
            [
              18.403716,
              54.4805815
            ],
            [
              18.4044166,
              54.4800675
            ],
            [
              18.4048857,
              54.4797108
            ],
            [
              18.4049806,
              54.4796387
            ],
            [
              18.4053631,
              54.4793748
            ],
            [
              18.4058633,
              54.4789667
            ],
            [
              18.4060259,
              54.4787759
            ],
            [
              18.4067603,
              54.4779125
            ],
            [
              18.4068679,
              54.4777861
            ],
            [
              18.4070579,
              54.4774564
            ],
            [
              18.4070858,
              54.4774082
            ],
            [
              18.4074642,
              54.4767515
            ],
            [
              18.4077675,
              54.4762254
            ],
            [
              18.4077959,
              54.4761749
            ],
            [
              18.4091118,
              54.4766369
            ],
            [
              18.4092552,
              54.4766672
            ],
            [
              18.4107147,
              54.4771011
            ],
            [
              18.4111406,
              54.4773572
            ],
            [
              18.4126867,
              54.4780329
            ],
            [
              18.4133759,
              54.478298
            ],
            [
              18.4143972,
              54.4784793
            ],
            [
              18.4148464,
              54.4785957
            ],
            [
              18.4156258,
              54.4788641
            ],
            [
              18.4171495,
              54.4791716
            ],
            [
              18.4176319,
              54.4793059
            ],
            [
              18.418092,
              54.47941
            ],
            [
              18.418491,
              54.479595
            ],
            [
              18.4184974,
              54.4796364
            ],
            [
              18.4185251,
              54.479651
            ],
            [
              18.4186183,
              54.4795654
            ],
            [
              18.4186317,
              54.4795402
            ],
            [
              18.4186004,
              54.4794878
            ],
            [
              18.4187093,
              54.4794296
            ],
            [
              18.4187582,
              54.4793752
            ],
            [
              18.4187599,
              54.4792517
            ],
            [
              18.4187114,
              54.4791996
            ],
            [
              18.4186192,
              54.4791667
            ],
            [
              18.4187532,
              54.4791414
            ],
            [
              18.4187799,
              54.4790973
            ],
            [
              18.4187816,
              54.4790229
            ],
            [
              18.4188048,
              54.479023
            ],
            [
              18.4189927,
              54.4790447
            ],
            [
              18.4191021,
              54.4790331
            ],
            [
              18.419119,
              54.4789737
            ],
            [
              18.4191774,
              54.4789187
            ],
            [
              18.4192274,
              54.4789092
            ],
            [
              18.4195029,
              54.4789493
            ],
            [
              18.4195784,
              54.4789431
            ],
            [
              18.419741,
              54.4789919
            ],
            [
              18.4197767,
              54.4789921
            ],
            [
              18.4198315,
              54.4790197
            ],
            [
              18.4199993,
              54.4789956
            ],
            [
              18.4202678,
              54.4791673
            ],
            [
              18.4203796,
              54.4791931
            ],
            [
              18.4205013,
              54.4791958
            ],
            [
              18.4206577,
              54.4791827
            ],
            [
              18.4208098,
              54.4791734
            ],
            [
              18.4208968,
              54.4791984
            ],
            [
              18.4210264,
              54.4791859
            ],
            [
              18.4210547,
              54.4791991
            ],
            [
              18.4211017,
              54.4793218
            ],
            [
              18.421231,
              54.4793736
            ],
            [
              18.4212889,
              54.4794337
            ],
            [
              18.4212708,
              54.4794536
            ],
            [
              18.421418,
              54.4796283
            ],
            [
              18.4215971,
              54.479728
            ],
            [
              18.4217442,
              54.4797823
            ],
            [
              18.4219749,
              54.4798422
            ],
            [
              18.4222737,
              54.4798395
            ],
            [
              18.4224247,
              54.479825
            ],
            [
              18.4225464,
              54.4798716
            ],
            [
              18.4226476,
              54.4798962
            ],
            [
              18.422801,
              54.4798766
            ],
            [
              18.4229771,
              54.4799006
            ],
            [
              18.4231579,
              54.4798368
            ],
            [
              18.4234258,
              54.4798692
            ],
            [
              18.4236501,
              54.4798806
            ],
            [
              18.4239042,
              54.4798466
            ],
            [
              18.4240229,
              54.4798094
            ],
            [
              18.4241869,
              54.4797597
            ],
            [
              18.4242945,
              54.4797485
            ],
            [
              18.4244648,
              54.4797127
            ],
            [
              18.4245839,
              54.4796472
            ],
            [
              18.4247113,
              54.4795413
            ],
            [
              18.4247634,
              54.4794233
            ],
            [
              18.4249698,
              54.4793181
            ],
            [
              18.4249913,
              54.4792639
            ],
            [
              18.4252935,
              54.4791436
            ],
            [
              18.4254484,
              54.4789746
            ],
            [
              18.4255164,
              54.4788273
            ],
            [
              18.42548,
              54.4787579
            ],
            [
              18.425476,
              54.4787029
            ],
            [
              18.4255055,
              54.4786778
            ],
            [
              18.4255812,
              54.478654
            ],
            [
              18.4256669,
              54.4786388
            ],
            [
              18.4263823,
              54.4783964
            ],
            [
              18.426675,
              54.4783547
            ],
            [
              18.4267333,
              54.4783289
            ],
            [
              18.4268208,
              54.4783336
            ],
            [
              18.4268829,
              54.4783078
            ],
            [
              18.4269549,
              54.4783202
            ],
            [
              18.4271239,
              54.4782906
            ],
            [
              18.4272077,
              54.4782002
            ],
            [
              18.4272551,
              54.4781866
            ],
            [
              18.4273577,
              54.4781975
            ],
            [
              18.427457,
              54.4781643
            ],
            [
              18.4275134,
              54.4781882
            ],
            [
              18.4278271,
              54.4781715
            ],
            [
              18.4279067,
              54.4781099
            ],
            [
              18.4280002,
              54.4781319
            ],
            [
              18.4282077,
              54.4781156
            ],
            [
              18.4283797,
              54.4780426
            ],
            [
              18.4285857,
              54.4781055
            ],
            [
              18.4286974,
              54.4781696
            ],
            [
              18.4287631,
              54.4781602
            ],
            [
              18.4289269,
              54.4781263
            ],
            [
              18.4291473,
              54.4780301
            ],
            [
              18.4292583,
              54.4780116
            ],
            [
              18.429474,
              54.478004
            ],
            [
              18.4298633,
              54.4779561
            ],
            [
              18.4302319,
              54.4778816
            ],
            [
              18.4303551,
              54.4778386
            ],
            [
              18.4304518,
              54.477926
            ],
            [
              18.4305373,
              54.4779502
            ],
            [
              18.4306438,
              54.4780611
            ],
            [
              18.4307421,
              54.4780429
            ],
            [
              18.4308089,
              54.4780802
            ],
            [
              18.4309557,
              54.4780492
            ],
            [
              18.4309827,
              54.4780541
            ],
            [
              18.4310316,
              54.4781006
            ],
            [
              18.4314291,
              54.4781247
            ],
            [
              18.4315085,
              54.4780952
            ],
            [
              18.43152,
              54.4780166
            ],
            [
              18.4315928,
              54.4779893
            ],
            [
              18.4317369,
              54.4781315
            ],
            [
              18.4318327,
              54.4781156
            ],
            [
              18.4319354,
              54.4781382
            ],
            [
              18.4319723,
              54.4781965
            ],
            [
              18.4320652,
              54.4782007
            ],
            [
              18.4321589,
              54.4782338
            ],
            [
              18.4322772,
              54.4782188
            ],
            [
              18.4326011,
              54.4782457
            ],
            [
              18.4327486,
              54.4782082
            ],
            [
              18.4328354,
              54.4782816
            ],
            [
              18.4329279,
              54.4782902
            ],
            [
              18.4329434,
              54.4782463
            ],
            [
              18.4330489,
              54.4783255
            ],
            [
              18.4333024,
              54.4783261
            ],
            [
              18.4333986,
              54.4783926
            ],
            [
              18.4335332,
              54.4783806
            ],
            [
              18.4335315,
              54.4782921
            ],
            [
              18.4337846,
              54.4782368
            ],
            [
              18.4337724,
              54.4781537
            ],
            [
              18.4339673,
              54.4780475
            ],
            [
              18.4340519,
              54.4780618
            ],
            [
              18.4340935,
              54.4781204
            ],
            [
              18.4339518,
              54.478213
            ],
            [
              18.4341113,
              54.4783031
            ],
            [
              18.4342965,
              54.4784632
            ],
            [
              18.4344224,
              54.4784408
            ],
            [
              18.4345552,
              54.4784349
            ],
            [
              18.4348544,
              54.4784351
            ],
            [
              18.43498,
              54.4785218
            ],
            [
              18.4351375,
              54.4785322
            ],
            [
              18.4352101,
              54.4784806
            ],
            [
              18.4354816,
              54.4784914
            ],
            [
              18.4355185,
              54.4786532
            ],
            [
              18.4356835,
              54.478745
            ],
            [
              18.4358863,
              54.478744
            ],
            [
              18.4360059,
              54.4787745
            ],
            [
              18.4361977,
              54.4787952
            ],
            [
              18.4362968,
              54.4787765
            ],
            [
              18.4365193,
              54.4788756
            ],
            [
              18.4365377,
              54.478876
            ],
            [
              18.4365434,
              54.4787659
            ],
            [
              18.4365746,
              54.4787657
            ],
            [
              18.4366166,
              54.4787713
            ],
            [
              18.4366701,
              54.4788338
            ],
            [
              18.4369152,
              54.4788244
            ],
            [
              18.4369489,
              54.4788776
            ],
            [
              18.4369782,
              54.4788817
            ],
            [
              18.4371697,
              54.4788414
            ],
            [
              18.4371863,
              54.4787789
            ],
            [
              18.4374565,
              54.478687
            ],
            [
              18.4376572,
              54.4786459
            ],
            [
              18.4379442,
              54.4786568
            ],
            [
              18.4383063,
              54.478728
            ],
            [
              18.4384663,
              54.478732
            ],
            [
              18.4387079,
              54.4787817
            ],
            [
              18.4389409,
              54.4788284
            ],
            [
              18.4392457,
              54.4788756
            ],
            [
              18.4397791,
              54.4789549
            ],
            [
              18.4400202,
              54.4789952
            ],
            [
              18.4403733,
              54.4790526
            ],
            [
              18.4404595,
              54.4790472
            ],
            [
              18.4408325,
              54.4790184
            ],
            [
              18.441025,
              54.479007
            ],
            [
              18.4413328,
              54.478974
            ],
            [
              18.4415299,
              54.4789524
            ],
            [
              18.4417311,
              54.4789592
            ],
            [
              18.4419,
              54.4790112
            ],
            [
              18.4419911,
              54.4790588
            ],
            [
              18.4422059,
              54.479064
            ],
            [
              18.4422824,
              54.4791857
            ],
            [
              18.4425091,
              54.4792369
            ],
            [
              18.4426166,
              54.4793005
            ],
            [
              18.4427519,
              54.4792838
            ],
            [
              18.442727,
              54.4793909
            ],
            [
              18.4427417,
              54.4794005
            ],
            [
              18.4429589,
              54.4794336
            ],
            [
              18.4430891,
              54.4793537
            ],
            [
              18.4431922,
              54.4793939
            ],
            [
              18.4432932,
              54.4793933
            ],
            [
              18.4433273,
              54.4793688
            ],
            [
              18.4433659,
              54.47937
            ],
            [
              18.4434151,
              54.4793773
            ],
            [
              18.4434805,
              54.4793707
            ],
            [
              18.4435041,
              54.4793595
            ],
            [
              18.4435525,
              54.4792986
            ],
            [
              18.4435709,
              54.4792974
            ],
            [
              18.4436297,
              54.4793146
            ],
            [
              18.4436726,
              54.4793059
            ],
            [
              18.4436951,
              54.4792672
            ],
            [
              18.4437621,
              54.4792947
            ],
            [
              18.4438216,
              54.4792858
            ],
            [
              18.4439036,
              54.4793042
            ],
            [
              18.4440087,
              54.4793748
            ],
            [
              18.4440962,
              54.4793783
            ],
            [
              18.4441187,
              54.4793153
            ],
            [
              18.4441489,
              54.4793243
            ],
            [
              18.4442989,
              54.4792738
            ],
            [
              18.4443653,
              54.4792579
            ],
            [
              18.444391,
              54.4792677
            ],
            [
              18.4444904,
              54.4792565
            ],
            [
              18.4446365,
              54.4791664
            ],
            [
              18.4446448,
              54.4791428
            ],
            [
              18.4446644,
              54.479142
            ],
            [
              18.4447706,
              54.4790842
            ],
            [
              18.4447815,
              54.4790699
            ],
            [
              18.4450085,
              54.4790141
            ],
            [
              18.4450252,
              54.4789818
            ],
            [
              18.4450907,
              54.47895
            ],
            [
              18.4451175,
              54.4789212
            ],
            [
              18.4451207,
              54.478904
            ],
            [
              18.4451816,
              54.4788545
            ],
            [
              18.4451969,
              54.478825
            ],
            [
              18.445253,
              54.4788268
            ],
            [
              18.445399,
              54.4788088
            ],
            [
              18.4455264,
              54.478804
            ],
            [
              18.4455771,
              54.478769
            ],
            [
              18.4456332,
              54.478769
            ],
            [
              18.4456586,
              54.47878
            ],
            [
              18.4457711,
              54.4787797
            ],
            [
              18.4458728,
              54.4787712
            ],
            [
              18.4459101,
              54.4787573
            ],
            [
              18.4459292,
              54.4787678
            ],
            [
              18.4460414,
              54.4787462
            ],
            [
              18.4462083,
              54.4786598
            ],
            [
              18.446234,
              54.4786264
            ],
            [
              18.4462677,
              54.4786131
            ],
            [
              18.4462873,
              54.4786095
            ],
            [
              18.4463627,
              54.4786586
            ],
            [
              18.4463899,
              54.4786651
            ],
            [
              18.4465553,
              54.4786441
            ],
            [
              18.446567,
              54.4786334
            ],
            [
              18.446572,
              54.4786172
            ],
            [
              18.4465943,
              54.4786085
            ],
            [
              18.4466391,
              54.4786156
            ],
            [
              18.4466683,
              54.4786087
            ],
            [
              18.4466911,
              54.4785861
            ],
            [
              18.4467607,
              54.4785998
            ],
            [
              18.4468052,
              54.4785804
            ],
            [
              18.4468164,
              54.4785201
            ],
            [
              18.4468342,
              54.4785007
            ],
            [
              18.446865,
              54.4784446
            ],
            [
              18.4469505,
              54.478399
            ],
            [
              18.4469871,
              54.4783506
            ],
            [
              18.4469847,
              54.4783292
            ],
            [
              18.4470293,
              54.4783221
            ],
            [
              18.4470822,
              54.4782945
            ],
            [
              18.4470917,
              54.4782781
            ],
            [
              18.4470683,
              54.4782486
            ],
            [
              18.4470334,
              54.478239
            ],
            [
              18.4470277,
              54.4782211
            ],
            [
              18.446995,
              54.4781989
            ],
            [
              18.4470089,
              54.4781809
            ],
            [
              18.4470454,
              54.4781818
            ],
            [
              18.4470677,
              54.4781631
            ],
            [
              18.4470644,
              54.4781433
            ],
            [
              18.4470474,
              54.478127
            ],
            [
              18.446991,
              54.4781055
            ],
            [
              18.4470371,
              54.4780315
            ],
            [
              18.4470359,
              54.4780104
            ],
            [
              18.4470051,
              54.4780025
            ],
            [
              18.4469692,
              54.4780049
            ],
            [
              18.4469586,
              54.477994
            ],
            [
              18.4469638,
              54.4779845
            ],
            [
              18.4470235,
              54.4779796
            ],
            [
              18.4470422,
              54.4779712
            ],
            [
              18.4470579,
              54.4779474
            ],
            [
              18.4470906,
              54.4779319
            ],
            [
              18.4471006,
              54.4779104
            ],
            [
              18.4471184,
              54.4778985
            ],
            [
              18.4471255,
              54.4778796
            ],
            [
              18.4471368,
              54.4778478
            ],
            [
              18.4471581,
              54.4778299
            ],
            [
              18.4472302,
              54.4778114
            ],
            [
              18.4472736,
              54.4778086
            ],
            [
              18.4472892,
              54.4777884
            ],
            [
              18.4472855,
              54.4777661
            ],
            [
              18.4472499,
              54.4777457
            ],
            [
              18.4472308,
              54.477722
            ],
            [
              18.4473125,
              54.4777131
            ],
            [
              18.4473234,
              54.4777042
            ],
            [
              18.4473296,
              54.477668
            ],
            [
              18.4473425,
              54.4776462
            ],
            [
              18.447367,
              54.477645
            ],
            [
              18.447434,
              54.4776669
            ],
            [
              18.4474651,
              54.4776859
            ],
            [
              18.4475084,
              54.4776891
            ],
            [
              18.4475478,
              54.4776803
            ],
            [
              18.44763,
              54.4777156
            ],
            [
              18.4476945,
              54.4776687
            ],
            [
              18.4476711,
              54.4775849
            ],
            [
              18.4476793,
              54.477568
            ],
            [
              18.4476315,
              54.4775237
            ],
            [
              18.4476494,
              54.4775022
            ],
            [
              18.4477633,
              54.4775136
            ],
            [
              18.4478011,
              54.4774995
            ],
            [
              18.4477974,
              54.4774796
            ],
            [
              18.4477807,
              54.4774513
            ],
            [
              18.4478109,
              54.4774547
            ],
            [
              18.4478238,
              54.4774711
            ],
            [
              18.4478114,
              54.4775022
            ],
            [
              18.4478114,
              54.4775378
            ],
            [
              18.4479104,
              54.4775575
            ],
            [
              18.4480286,
              54.4775039
            ],
            [
              18.4480379,
              54.4774867
            ],
            [
              18.4480927,
              54.4774853
            ],
            [
              18.4481865,
              54.4774189
            ],
            [
              18.4481817,
              54.4773957
            ],
            [
              18.448103,
              54.4773548
            ],
            [
              18.4480649,
              54.477343
            ],
            [
              18.4480747,
              54.4772926
            ],
            [
              18.4480607,
              54.4772739
            ],
            [
              18.448139,
              54.4772637
            ],
            [
              18.4481577,
              54.4771897
            ],
            [
              18.4481025,
              54.4771762
            ],
            [
              18.4481621,
              54.4771585
            ],
            [
              18.4481619,
              54.4771263
            ],
            [
              18.4481068,
              54.4771134
            ],
            [
              18.4480048,
              54.4771067
            ],
            [
              18.4480274,
              54.4770859
            ],
            [
              18.4480263,
              54.477038
            ],
            [
              18.4480698,
              54.477023
            ],
            [
              18.4481105,
              54.4770524
            ],
            [
              18.4481669,
              54.4770573
            ],
            [
              18.4482069,
              54.4770488
            ],
            [
              18.4482009,
              54.4770236
            ],
            [
              18.4481536,
              54.4769802
            ],
            [
              18.4480871,
              54.4769679
            ],
            [
              18.4480912,
              54.4769583
            ],
            [
              18.4482051,
              54.4769266
            ],
            [
              18.4482708,
              54.4769193
            ],
            [
              18.4482996,
              54.4768988
            ],
            [
              18.4483023,
              54.476867
            ],
            [
              18.4483524,
              54.4768287
            ],
            [
              18.4483258,
              54.476812
            ],
            [
              18.4482726,
              54.476822
            ],
            [
              18.4482534,
              54.4768133
            ],
            [
              18.4483137,
              54.476777
            ],
            [
              18.4483355,
              54.4767297
            ],
            [
              18.4483056,
              54.4767046
            ],
            [
              18.4482653,
              54.4766932
            ],
            [
              18.4482577,
              54.4766639
            ],
            [
              18.4482789,
              54.4766527
            ],
            [
              18.4483286,
              54.4766443
            ],
            [
              18.4483529,
              54.4766202
            ],
            [
              18.4484285,
              54.4765916
            ],
            [
              18.4484714,
              54.4765859
            ],
            [
              18.4484888,
              54.476566
            ],
            [
              18.4484771,
              54.4765401
            ],
            [
              18.4485002,
              54.4765229
            ],
            [
              18.4484979,
              54.4764801
            ],
            [
              18.4484902,
              54.4764621
            ],
            [
              18.4484654,
              54.4764354
            ],
            [
              18.4484779,
              54.4763538
            ],
            [
              18.4484377,
              54.4762098
            ],
            [
              18.4484517,
              54.4761013
            ],
            [
              18.4484895,
              54.4760862
            ],
            [
              18.4485694,
              54.47608
            ],
            [
              18.4486045,
              54.4760592
            ],
            [
              18.4486365,
              54.4760115
            ],
            [
              18.4487122,
              54.4760208
            ],
            [
              18.4487368,
              54.476015
            ],
            [
              18.4487732,
              54.4760198
            ],
            [
              18.4488659,
              54.4759933
            ],
            [
              18.4488746,
              54.4759439
            ],
            [
              18.4488667,
              54.4758914
            ],
            [
              18.448786,
              54.4758273
            ],
            [
              18.4487925,
              54.4758167
            ],
            [
              18.44884,
              54.4758023
            ],
            [
              18.4488768,
              54.4757321
            ],
            [
              18.4490206,
              54.4756401
            ],
            [
              18.4490498,
              54.4756299
            ],
            [
              18.4491137,
              54.4756309
            ],
            [
              18.4491774,
              54.4756006
            ],
            [
              18.4491702,
              54.475584
            ],
            [
              18.4491778,
              54.4755697
            ],
            [
              18.4493152,
              54.4755242
            ],
            [
              18.4493598,
              54.4755181
            ],
            [
              18.4494291,
              54.4754935
            ],
            [
              18.4495061,
              54.4754912
            ],
            [
              18.4495572,
              54.4754659
            ],
            [
              18.4495809,
              54.4754378
            ],
            [
              18.4496153,
              54.475423
            ],
            [
              18.4497398,
              54.4754063
            ],
            [
              18.4497352,
              54.4753671
            ],
            [
              18.4497561,
              54.4753426
            ],
            [
              18.4498629,
              54.4752873
            ],
            [
              18.4499208,
              54.4752218
            ],
            [
              18.4500214,
              54.475202
            ],
            [
              18.4500622,
              54.4752185
            ],
            [
              18.4500972,
              54.4752409
            ],
            [
              18.4501827,
              54.475242
            ],
            [
              18.4502387,
              54.4752386
            ],
            [
              18.450328,
              54.4752091
            ],
            [
              18.4504211,
              54.4751962
            ],
            [
              18.4504692,
              54.4751789
            ],
            [
              18.4505388,
              54.4750945
            ],
            [
              18.4506325,
              54.47508
            ],
            [
              18.45067,
              54.4750875
            ],
            [
              18.4507558,
              54.4750686
            ],
            [
              18.4508587,
              54.4750863
            ],
            [
              18.4508927,
              54.4751014
            ],
            [
              18.4510034,
              54.4750531
            ],
            [
              18.4512798,
              54.4750653
            ],
            [
              18.4514716,
              54.4750005
            ],
            [
              18.4519157,
              54.4750035
            ],
            [
              18.4522543,
              54.4747517
            ],
            [
              18.4523687,
              54.4747216
            ],
            [
              18.4525889,
              54.474716
            ],
            [
              18.4527447,
              54.4748185
            ],
            [
              18.4529764,
              54.4746829
            ],
            [
              18.4531203,
              54.4748376
            ],
            [
              18.4536146,
              54.4749693
            ],
            [
              18.4542027,
              54.4752456
            ],
            [
              18.4548336,
              54.4753465
            ],
            [
              18.455062,
              54.4754432
            ],
            [
              18.4551187,
              54.4754718
            ],
            [
              18.4557721,
              54.4755545
            ],
            [
              18.4560134,
              54.4755453
            ],
            [
              18.4563361,
              54.4756334
            ],
            [
              18.456208,
              54.4757444
            ],
            [
              18.4557142,
              54.4757109
            ],
            [
              18.4553057,
              54.4756473
            ],
            [
              18.4549946,
              54.4754766
            ],
            [
              18.454026,
              54.4753668
            ],
            [
              18.4540262,
              54.4753769
            ],
            [
              18.4539774,
              54.4753769
            ],
            [
              18.4539698,
              54.4753964
            ],
            [
              18.4540102,
              54.4753959
            ],
            [
              18.4540682,
              54.4754327
            ],
            [
              18.4541327,
              54.4754252
            ],
            [
              18.4542629,
              54.4754962
            ],
            [
              18.4546182,
              54.475531
            ],
            [
              18.4546981,
              54.4755642
            ],
            [
              18.4548781,
              54.4755803
            ],
            [
              18.4550068,
              54.475637
            ],
            [
              18.4550294,
              54.4757374
            ],
            [
              18.45528,
              54.475861
            ],
            [
              18.4554547,
              54.475888
            ],
            [
              18.4554913,
              54.4758809
            ],
            [
              18.4555509,
              54.4758161
            ],
            [
              18.4555797,
              54.4758338
            ],
            [
              18.4557777,
              54.4757786
            ],
            [
              18.4559269,
              54.4758327
            ],
            [
              18.456171,
              54.4758737
            ],
            [
              18.4562304,
              54.47586
            ],
            [
              18.4563784,
              54.4758832
            ],
            [
              18.4566855,
              54.4760229
            ],
            [
              18.4583081,
              54.4764168
            ],
            [
              18.4588787,
              54.4766038
            ],
            [
              18.4594663,
              54.4766294
            ],
            [
              18.4592912,
              54.4768325
            ],
            [
              18.4601763,
              54.4772269
            ],
            [
              18.4606189,
              54.4774229
            ],
            [
              18.461082,
              54.4776318
            ],
            [
              18.4616433,
              54.4777593
            ],
            [
              18.4625531,
              54.4781506
            ],
            [
              18.4629466,
              54.4780578
            ],
            [
              18.4629726,
              54.4781151
            ],
            [
              18.463072,
              54.4781454
            ],
            [
              18.4629626,
              54.4781831
            ],
            [
              18.4631392,
              54.4783678
            ],
            [
              18.4633123,
              54.478433
            ],
            [
              18.4634266,
              54.4784126
            ],
            [
              18.4635117,
              54.47849
            ],
            [
              18.4634625,
              54.4786332
            ],
            [
              18.4635195,
              54.4787198
            ],
            [
              18.4636925,
              54.4787846
            ],
            [
              18.4638482,
              54.4787867
            ],
            [
              18.4638257,
              54.4788068
            ],
            [
              18.4638499,
              54.4788737
            ],
            [
              18.4639489,
              54.4789345
            ],
            [
              18.4640299,
              54.4789316
            ],
            [
              18.4641857,
              54.479007
            ],
            [
              18.4642466,
              54.4789677
            ],
            [
              18.4642497,
              54.4789946
            ],
            [
              18.4642966,
              54.4790257
            ],
            [
              18.4643565,
              54.4790217
            ],
            [
              18.4644782,
              54.4790491
            ],
            [
              18.4646843,
              54.4789408
            ],
            [
              18.4648964,
              54.4791203
            ],
            [
              18.464857,
              54.4791657
            ],
            [
              18.4649122,
              54.4791772
            ],
            [
              18.4649846,
              54.4792635
            ],
            [
              18.4650573,
              54.4791978
            ],
            [
              18.4651356,
              54.4792263
            ],
            [
              18.4652373,
              54.4792138
            ],
            [
              18.4652936,
              54.479221
            ],
            [
              18.4652556,
              54.4792484
            ],
            [
              18.4652508,
              54.4793082
            ],
            [
              18.4651153,
              54.4793866
            ],
            [
              18.4652077,
              54.4794225
            ],
            [
              18.4652949,
              54.4794262
            ],
            [
              18.4652457,
              54.4794808
            ],
            [
              18.4650859,
              54.4795791
            ],
            [
              18.4650898,
              54.4796365
            ],
            [
              18.4651772,
              54.4796658
            ],
            [
              18.4650838,
              54.4797036
            ],
            [
              18.46521,
              54.4797742
            ],
            [
              18.4651839,
              54.4798481
            ],
            [
              18.4651236,
              54.4798405
            ],
            [
              18.4651199,
              54.4798628
            ],
            [
              18.4649434,
              54.4799261
            ],
            [
              18.4649828,
              54.4800521
            ],
            [
              18.4650838,
              54.4801355
            ],
            [
              18.4649857,
              54.4801849
            ],
            [
              18.4651573,
              54.480273
            ],
            [
              18.4651739,
              54.4803116
            ],
            [
              18.4651104,
              54.4803744
            ],
            [
              18.4650312,
              54.4804092
            ],
            [
              18.4649261,
              54.4804277
            ],
            [
              18.4649785,
              54.4804721
            ],
            [
              18.4651157,
              54.4804883
            ],
            [
              18.4652433,
              54.4804523
            ],
            [
              18.4653444,
              54.4803535
            ],
            [
              18.4653975,
              54.4803458
            ],
            [
              18.4654115,
              54.4804112
            ],
            [
              18.4655531,
              54.4804816
            ],
            [
              18.4655067,
              54.4805418
            ],
            [
              18.465446,
              54.480605
            ],
            [
              18.465415,
              54.4806696
            ],
            [
              18.4655604,
              54.4807104
            ],
            [
              18.4655894,
              54.4807633
            ],
            [
              18.4658013,
              54.4808194
            ],
            [
              18.4658441,
              54.4809042
            ],
            [
              18.4660566,
              54.4808796
            ],
            [
              18.4662622,
              54.4808951
            ],
            [
              18.4663824,
              54.4810367
            ],
            [
              18.4666479,
              54.4810084
            ],
            [
              18.4667489,
              54.4809563
            ],
            [
              18.4667549,
              54.4811118
            ],
            [
              18.4669742,
              54.4811755
            ],
            [
              18.4670735,
              54.4812553
            ],
            [
              18.4672885,
              54.4812944
            ],
            [
              18.4674823,
              54.4814304
            ],
            [
              18.4676773,
              54.4815262
            ],
            [
              18.4679797,
              54.4817726
            ],
            [
              18.4682325,
              54.4820665
            ],
            [
              18.4683467,
              54.4820943
            ],
            [
              18.4682862,
              54.4822311
            ],
            [
              18.4682816,
              54.4824094
            ],
            [
              18.4683142,
              54.4824514
            ],
            [
              18.468243,
              54.4824823
            ],
            [
              18.4682336,
              54.4826363
            ],
            [
              18.4683753,
              54.4828391
            ],
            [
              18.4682924,
              54.4828982
            ],
            [
              18.4682991,
              54.4830828
            ],
            [
              18.468338,
              54.4831166
            ],
            [
              18.468345,
              54.4832371
            ],
            [
              18.4683975,
              54.4832832
            ],
            [
              18.468356,
              54.483355
            ],
            [
              18.4684017,
              54.4833944
            ],
            [
              18.4682274,
              54.4835115
            ],
            [
              18.4682074,
              54.4835632
            ],
            [
              18.4682746,
              54.483607
            ],
            [
              18.468277,
              54.4836465
            ],
            [
              18.4682228,
              54.4837349
            ],
            [
              18.468226,
              54.4838439
            ],
            [
              18.4681648,
              54.4839445
            ],
            [
              18.4681991,
              54.4839766
            ],
            [
              18.4681588,
              54.4840498
            ],
            [
              18.4682281,
              54.4842901
            ],
            [
              18.4681043,
              54.4844722
            ],
            [
              18.4681168,
              54.4845619
            ],
            [
              18.4682234,
              54.484655
            ],
            [
              18.4681885,
              54.4847558
            ],
            [
              18.4680617,
              54.4849
            ],
            [
              18.46768,
              54.485136
            ],
            [
              18.4674294,
              54.4854178
            ],
            [
              18.4675159,
              54.4855162
            ],
            [
              18.4675291,
              54.4855972
            ],
            [
              18.4676587,
              54.4856735
            ],
            [
              18.4677231,
              54.4858116
            ],
            [
              18.467874,
              54.4859399
            ],
            [
              18.4678636,
              54.4861059
            ],
            [
              18.4677673,
              54.4861174
            ],
            [
              18.4677301,
              54.4861725
            ],
            [
              18.4676468,
              54.486217
            ],
            [
              18.4676803,
              54.4862726
            ],
            [
              18.4674918,
              54.4863391
            ],
            [
              18.4673315,
              54.4863682
            ],
            [
              18.4674763,
              54.4866575
            ],
            [
              18.4675204,
              54.4866242
            ],
            [
              18.4683617,
              54.4870959
            ]
          ]
        ]
      },
      "id": "relation/2606786"
    }
  ]
}